HIMAWARI-8              
1 40267U 14060A   24006.38877653 -.00000248  00000+0  00000+0 0  9992
2 40267   0.0356 162.4890 0000930 131.7866  91.8021  1.00270207 33803
